ONEWEB-0656             
1 55817U 23029X   26189.49204943  .00000076  00000+0  15510-3 0  9990
2 55817  87.9192 270.1852 0002020  86.7647 273.3718 13.20769843163960
ONEWEB-0657             
1 55818U 23029Y   26188.84683876 -.00004196  00000+0 -10525-1 0  9993
2 55818  87.9149 300.8589 0002875  65.6225 294.5208 13.19685404161636
ONEWEB-0658             
1 55819U 23029Z   26189.29695356 -.00000013  00000+0 -64590-4 0  9998
2 55819  87.9194 300.7473 0002178 108.2823 251.8547 13.19726096161705
ONEWEB-0660             
1 55820U 23029AA  26189.51574685 -.00000120  00000+0 -35716-3 0  9992
2 55820  87.8980 285.4503 0001822 108.0932 252.0396 13.14501926162205
ONEWEB-0661             
1 55821U 23029AB  26189.24617657  .00000187  00000+0  46926-3 0  9996
2 55821  87.8963 285.5446 0001725 104.3423 255.7898 13.14502759162156
ONEWEB-0662             
1 55822U 23029AC  26189.50941475  .00000025  00000+0  33819-4 0  9993
2 55822  87.8962 285.4978 0001838 109.5190 250.6138 13.14502444162239
ONEWEB-0663             
1 55823U 23029AD  26189.52417481 -.00000029  00000+0 -10332-3 0  9991
2 55823  87.9195 270.2498 0002030 110.6337 249.5014 13.20871206163962
ONEWEB-0664             
1 55824U 23029AE  26189.47860448  .00000089  00000+0  18711-3 0  9994
2 55824  87.9180 270.2378 0001585  98.5063 261.6250 13.20771967163957
ONEWEB-0665             
1 55825U 23029AF  26189.24300334  .00000126  00000+0  30457-3 0  9996
2 55825  87.8960 285.5262 0001889 108.7776 251.3559 13.14502557162177
ONEWEB-0666             
1 55826U 23029AG  26188.71428942  .00000044  00000+0  76510-4 0  9994
2 55826  87.9180 270.3802 0002667  89.2241 270.9198 13.20772498163863
ONEWEB-0667             
1 55827U 23029AH  26189.46680468  .00000119  00000+0  26160-3 0  9999
2 55827  87.9196 270.1915 0001946 101.9161 258.2190 13.20773905163951
ONEWEB-0669             
1 55828U 23029AJ  26189.46174771  .00000066  00000+0  13004-3 0  9999
2 55828  87.9187 270.2020 0001830  84.9395 275.1947 13.20773619163951
ONEWEB-0670             
1 55829U 23029AK  26189.22079757 -.00000147  00000+0 -43014-3 0  9998
2 55829  87.8961 285.5481 0001597 102.5319 257.5989 13.14501929162195
ONEWEB-0671             
1 55830U 23029AL  26189.29220559  .00000022  00000+0  23118-4 0  9999
2 55830  87.9187 300.7723 0001912 105.5733 254.5611 13.19726415161687
ONEWEB-0672             
1 55831U 23029AM  26189.45669615  .00000115  00000+0  25085-3 0  9995
2 55831  87.9189 270.1966 0002179  92.2008 267.9374 13.20770741163951
ONEWEB-0673             
1 55832U 23029AN  26189.26929757  .00000066  00000+0  13152-3 0  9998
2 55832  87.9192 300.7700 0001863 102.7615 257.3726 13.19725063161689
